ARIRANG-3 (KOMPSAT-3)   
1 38338U 12025B   26188.49333066  .00000347  00000+0  78130-4 0  9990
2 38338  98.1180 145.6040 0006606  58.7079 301.4769 14.62224419754313
METOP-B                 
1 38771U 12049A   26188.53259589  .00000066  00000+0  49929-4 0  9991
2 38771  98.6493 239.6248 0001115 302.5643  57.5427 14.21444907716158
SJ-9A                   
1 38860U 12056A   26188.50691753  .00000910  00000+0  11083-3 0  9995
2 38860  97.6721 159.7252 0025276 186.9789 173.1079 14.85518314702603
COSMOS 2484 (RODNIK-S 6)
1 39059U 13001C   26188.51092484  .00000057  00000+0  34257-3 0  9994
2 39059  82.4998 209.2571 0025982 352.6246   7.4448 12.42940172611083
SARAL                   
1 39086U 13009A   26188.50115427  .00000061  00000+0  38260-4 0  9998
2 39086  98.5554  14.8114 0001232 188.6613 171.4550 14.32894390698519
STRAND-1                
1 39090U 13009E   26188.45511461  .00000234  00000+0  93038-4 0  9991
2 39090  98.3931   8.1913 0008963 162.7349 197.4144 14.37175624699976
BRITE-AUSTRIA           
1 39091U 13009F   26188.47677472  .00000141  00000+0  62513-4 0  9990
2 39091  98.4005   7.4112 0010287 172.8731 187.2604 14.36550284699967
GAOFEN-1                
1 39150U 13018A   26188.52880788  .00000601  00000+0  93350-4 0  9992
2 39150  97.9082 260.1832 0016388 196.1803 163.8886 14.76514376711240
NEE-01 PEGASO           
1 39151U 13018B   26187.89325462  .00002680  00000+0  25827-3 0  9997
2 39151  98.1252 332.6981 0013985  99.0383 261.2419 14.93765912713641
PROBA-V                 
1 39159U 13021A   26187.93942113  .00000100  00000+0  61957-4 0  9992
2 39159  98.3598 165.5720 0005423  78.7537 281.4252 14.23602192683920
ARIRANG-5 (KOMPSAT-5)   
1 39227U 13042A   26188.51758606  .00001261  00000+0  94343-4 0  9992
2 39227  97.6218  14.9317 0005337  75.9017 284.2802 15.04515441706919
GONETS-M 5              
1 39249U 13048A   26188.48061498 -.00000006  00000+0 -11581-3 0  9994
2 39249  82.4850 330.7298 0017008 165.8958 194.2600 12.42892225581403
GONETS-M 7              
1 39251U 13048C   26188.52369904  .00000054  00000+0  31859-3 0  9996
2 39251  82.4917 333.6358 0017801 167.0878 193.0661 12.42915234581360
FENGYUN 3C              
1 39260U 13052A   26188.46841980  .00000065  00000+0  54273-4 0  9991
2 39260  98.4992 161.4131 0014038 329.4720  30.5636 14.15759549661436
CASSIOPE                
1 39265U 13055A   26188.48695324  .00030648 -50902-6  32921-3 0  9999
2 39265  80.9130  42.0335 0284916 354.0396   5.7464 15.27023821670768
APRIZESAT 7             
1 39416U 13066A   26188.34639601  .00001152  00000+0  11897-3 0  9993
2 39416  97.7718 141.2777 0036709 142.5131 217.8658 14.91607312684239
ZACUBE-1 (TSHEPISOSAT)  
1 39417U 13066B   26188.46989733  .00001831  00000+0  14444-3 0  9996
2 39417  97.8022 150.9081 0043510 179.9834 180.1399 15.01305441683778
APRIZESAT 8             
1 39425U 13066K   26188.31964411  .00000712  00000+0  83005-4 0  9992
2 39425  97.8227 135.5078 0044856 218.1814 141.6223 14.87687995682662
TRITON-1                
1 39427U 13066M   26188.55468866  .00001208  00000+0  14948-3 0  9993
2 39427  97.8224  97.8967 0089926 166.9149 193.4428 14.81776652677104
